0295P         2026 07 23.0178  2.030465  0.617208   72.9033    7.4294   21.0746  20230513  12.0  4.0  295P/LINEAR                                              MPEC 2022-K19
0296P         2020 09 17.3428  1.818778  0.479036  349.9671  263.5439   25.2553  20230513  14.0  4.0  296P/Garradd                                             MPEC 2021-N06
0297P         2021 01 29.3894  2.356330  0.321108  135.8140   95.7731   10.3238  20230513  15.0  4.0  297P/Beshore                                             MPC102956
0298P         2020 09  5.7787  2.203329  0.386247  100.6155   52.8171    7.8706  20230513  15.0  4.0  298P/Christensen                                         MPC114609
0299P         2024 04 30.6616  3.155896  0.280930  323.7385  271.5967   10.4672  20230513  13.1  4.0  299P/Catalina-PANSTARRS                                  MPEC 2023-HD1
0300P         2023 04 11.1151  0.832068  0.691689  222.9571   95.6211    5.6741  20230513  16.0  4.0  300P/Catalina                                            MPEC 2023-J95
0301P         2028 05 21.0602  2.379489  0.585574  193.5274  351.1651   10.3363  20230513  13.0  4.0  301P/LINEAR-NEAT                                         MPC 89014
0302P         2025 03  8.7173  3.289074  0.230179  208.5103  121.7269    6.0336  20230513  12.5  4.0  302P/Lemmon-PANSTARRS                                    MPEC 2023-J29
0303P         2026 02 19.4233  2.467020  0.510832  356.9989  347.9606    7.0192  20230513  13.5  4.0  303P/NEAT                                                MPC 92278
0304P         2020 08 13.0609  1.257236  0.600965  335.2717   58.9075    2.6075  20230513  16.5  4.0  304P/Ory                                                 MPEC 2022-K19
0305P         2024 11 17.0960  1.419575  0.694003  147.3809  240.1032   11.6691  20230513  18.0  4.0  305P/Skiff                                               MPC101100
0306P         2025 08  1.3191  1.271436  0.593045    0.8913  341.3719    8.3075  20230513  19.0  4.0  306P/LINEAR                                              MPC 92278
0307P         2028 11 30.2325  1.878276  0.675554  222.1808  158.1575    4.4349  20230513  15.0  4.0  307P/LINEAR                                              MPC 92278
0308P         2015 05 12.0413  4.193080  0.364654  333.6915   63.0379    4.8549  20230513  13.0  2.0  308P/Lagerkvist-Carsenty                                 MPEC 2022-C56
0309P         2024 03 29.0725  1.669558  0.618256   49.9441   10.1434   17.0240  20230513  15.0  4.0  309P/LINEAR                                              MPC 94284
0310P         2023 10 23.9172  2.416349  0.422702   31.6817    8.9221   13.1272  20230513  13.5  4.0  310P/Hill                                                MPEC 2022-QD9
0311P         2024 01  2.4820  1.934751  0.115920  144.4492  279.2078    4.9697  20230513  17.0  4.0  311P/PANSTARRS                                           MPEC 2021-BE3
0312P         2020 09 25.1779  1.986276  0.427587  207.6696  144.6700   19.7611  20230513  16.0  4.0  312P/NEAT                                                MPEC 2021-BE3
0313P         2025 12  2.0749  2.420958  0.234892  254.8799  105.9480   10.9786  20230513  15.0  4.0  313P/Gibbs                                               MPEC 2021-S45
0314P         2016 10  8.0961  4.230200  0.417027  213.9020  267.6077    3.9872  20230513   9.5  4.0  314P/Montani                                             MPC105243
0315P         2027 11 17.8413  2.365508  0.521133   65.7542   68.7495   17.7340  20230513  11.0  4.0  315P/LONEOS                                              MPEC 2023-J29
0316P         2024 11  4.9175  3.705620  0.156305  191.3203  246.1664    9.8318  20230513  13.5  4.0  316P/LONEOS-Christensen                                  MPC 92279
0317P         2025 10 31.8717  1.271621  0.570705  334.8250  275.4773   11.9559  20230513  17.5  4.0  317P/WISE                                                MPEC 2020-C98
0318P         2015 10 26.1862  2.440331  0.674892  313.3508   35.5017   17.8894  20230513   8.5  6.0  318P/McNaught-Hartley                                    MPC102103
0319P         2022 03 31.3662  1.188801  0.666499  203.6568  111.3613   15.0955  20230513  15.0  4.0  319P/Catalina-McNaught                                   MPC 97499
0320P         2021 01 16.7794  0.974355  0.685131    0.7833  295.9490    4.9044  20230513  20.5  4.0  320P/McNaught                                            MPC 96281
0321P         2023 10 26.6071  0.045868  0.981070  172.7449  165.0179   20.0786  20230513  20.0  4.0  321P/SOHO                                                MPC105243
0322P         2023 08 21.0864  0.050201  0.979978   56.9221  351.4917   11.4645  20230513  19.0  4.0  322P/SOHO                                                MPC102103
0323P         2025 03 14.4409  0.039452  0.984728  353.0274  324.4138    5.3152  20230513  20.0  4.0  323P/SOHO                                                MPEC 2016-Y36
0324P         2021 05  5.0074  2.619512  0.153568   57.5452  270.5844   21.4024  20230513  13.0  4.0  324P/LaSagra                                             MPEC 2021-W31
0325P         2022 03 29.3410  1.434353  0.593552  343.9582  257.4254   16.7024  20230513  14.0  4.0  325P/Yang-Gao                                            MPEC 2022-TA0
0326P         2023 12 30.4891  2.769533  0.318399  278.6486   99.8082    2.4711  20230513  13.5  4.0  326P/Hill                                                MPC103849
0327P         2022 09  2.3577  1.556051  0.563127  185.0181  173.9839   36.2504  20230513  16.0  4.0  327P/VanNess                                             MPEC 2023-B57
0328P         2024 07 27.9145  1.874055  0.552734   30.6044  341.6195   17.6722  20230513  14.5  4.0  328P/LONEOS-Tucker                                       MPC109148
0329P         2027 09 25.6645  1.668478  0.678364  343.5570   87.6540   21.7111  20230513  13.5  4.0  329P/LINEAR-Catalina                                     MPC101101
0330P         2016 08 26.0407  2.985260  0.549146  188.8385  293.0807   15.7146  20230513  12.0  4.0  330P/Catalina                                            MPEC 2023-J29
0331P         2020 10  4.0763  2.881027  0.041317  184.6071  216.7517    9.7398  20230513  12.0  4.0  331P/Gibbs                                               MPEC 2022-C56
0332P         2021 08 18.2701  1.576764  0.489301  152.2948    3.7821    9.3804  20230513  18.0  4.0  332P/Ikeya-Murakami                                      MPEC 2016-K18
0332P      b  2016 03 17.1650  1.572891  0.489707  152.3711    3.8028    9.3805            19.0  4.0  332P-B/Ikeya-Murakami                                    MPEC 2016-EI8
0332P      c  2021 08 18.1921  1.576729  0.489307  152.2861    3.7825    9.3794  20230513  16.5  4.0  332P-C/Ikeya-Murakami                                    MPEC 2016-K18
0332P      d  2016 03 17.2819  1.572064  0.489778  152.4393    3.7923    9.3761            19.0  4.0  332P-D/Ikeya-Murakami                                    MPEC 2016-ED0
0332P      e  2016 03 17.0610  1.573139  0.489220  152.2825    3.8228    9.3774            21.0  4.0  332P-E/Ikeya-Murakami                                    MPEC 2016-ED0
0332P      f  2016 03 17.8554  1.584174  0.499189  152.8203    3.4757    9.5293            21.0  4.0  332P-F/Ikeya-Murakami                                    MPEC 2016-ED0
0332P      g  2016 03 19.5375  1.549652  0.492004  154.4000    3.6955    9.2523            19.0  4.0  332P-G/Ikeya-Murakami                                    MPEC 2016-ED0
0332P      h  2021 08 18.5506  1.576713  0.489342  152.2867    3.7822    9.3800  20230513  19.0  4.0  332P-H/Ikeya-Murakami                                    MPC100285
0332P      i  2016 03 17.3515  1.573073  0.489555  152.3297    3.8048    9.3791            20.5  2.0  332P-I/Ikeya-Murakami                                    MPEC 2016-ED0
0332P      j  2016 03 17.7739  1.575357  0.494294  152.7712    3.6729    9.4296            20.5  2.0  332P-J/Ikeya-Murakami                                    MPEC 2016-EI8
0333P         2024 11 29.2516  1.112894  0.736375   25.9890  115.6756  132.0146  20230513  15.0  4.0  333P/LINEAR                                              MPEC 2020-L06
0334P         2017 06  3.3856  4.438048  0.350633   90.0751   90.5567   20.3893  20230513  10.5  4.0  334P/NEAT                                                MPEC 2023-J29
0335P         2022 08 12.0084  1.623661  0.546270  162.3045  330.8411    7.2928  20230513  17.0  4.0  335P/Gibbs                                               MPEC 2021-U31
0336P         2028 05 19.8279  2.801170  0.443847  308.6606  298.2747   17.8243  20230513  13.5  4.0  336P/McNaught                                            MPC105244
0337P         2022 07  1.3342  1.654423  0.497041  161.1568  106.0037   15.3678  20230513  17.0  4.0  337P/WISE                                                MPEC 2023-J29
0338P         2024 08  2.8771  2.288538  0.412140    4.5246    9.7976   25.3862  20230513  12.0  4.0  338P/McNaught                                            MPEC 2023-J29
0339P         2023 08 30.9511  1.348264  0.635661   27.4649  172.7231    5.7332  20230513  17.0  4.0  339P/Gibbs                                               MPC101101
0340P         2025 08 28.8148  3.057178  0.280641   35.9879  291.7027    2.0781  20230513  14.3  4.0  340P/Boattini                                            MPC133426
0341P         2025 04 22.3658  2.506727  0.415676  312.2839   29.9678    3.7971  20230513  12.5  4.0  341P/Gibbs                                               MPEC 2023-J29
0342P         2021 10 19.2889  0.052239  0.982823   73.2507   27.7083   11.6666  20230513   9.0  4.0  342P/SOHO                                                MPC101101
0343P         2017 01 31.7026  2.263726  0.585230  137.5111  257.0948    5.5926  20230513  14.0  4.0  343P/NEAT-LONEOS                                         MPEC 2023-J29
